[{"OBJECT_NAME":"KINEIS-1D","OBJECT_ID":"2024-114D","EPOCH":"2026-03-10T00:18:20.784384","MEAN_MOTION":14.76114357,"ECCENTRICITY":0.00024808,"INCLINATION":97.9968,"RA_OF_ASC_NODE":90.2039,"ARG_OF_PERICENTER":123.4456,"MEAN_ANOMALY":236.6991,"EPHEMERIS_TYPE":0,"CLASSIFICATION_TYPE":"U","NORAD_CAT_ID":60082,"ELEMENT_SET_NO":999,"REV_AT_EPOCH":9249,"BSTAR":0.00015372971,"MEAN_MOTION_DOT":1.01e-5,"MEAN_MOTION_DDOT":0},{"OBJECT_NAME":"SCOUT G-1 DEB","OBJECT_ID":"1983-063C","EPOCH":"2026-03-09T12:46:05.092032","MEAN_MOTION":14.73209152,"ECCENTRICITY":0.00159051,"INCLINATION":82.365,"RA_OF_ASC_NODE":95.6822,"ARG_OF_PERICENTER":187.6608,"MEAN_ANOMALY":172.436,"EPHEMERIS_TYPE":0,"CLASSIFICATION_TYPE":"U","NORAD_CAT_ID":14222,"ELEMENT_SET_NO":999,"REV_AT_EPOCH":26262,"BSTAR":0.00043059105,"MEAN_MOTION_DOT":2.804e-5,"MEAN_MOTION_DDOT":0}]
